YAOGAN-43 01D           
1 60461U 24148D   26068.43560480  .00010676  00000+0  37766-3 0  9999
2 60461  35.0010  61.7102 0002556 326.2473  33.8080 15.28369377 87008
STARLINK-35689          
1 66494U 25263K   26067.83385995  .00035661  00000+0  12987-2 0  9997
2 66494  42.9976 355.9128 0000268 198.9212 161.1629 15.27592341 18766
